STARLINK-5471           
1 54766U 22175J   26068.32231360  .00000862  00000+0  72231-4 0  9991
2 54766  53.2178  45.7652 0001585  85.7722 274.3451 15.08852588179862
LEMUR-2-AHMED-ASRAR     
1 60576U 24149DN  26068.73265438  .00013045  00000+0  79773-3 0  9992
2 60576  97.7021 152.9847 0001633  18.5035 341.6253 15.10376432 85541
